[{"OBJECT_NAME":"KUZGTU 1 (RS47S)","OBJECT_ID":"2023-091AV","EPOCH":"2026-03-09T22:22:51.965760","MEAN_MOTION":15.27481352,"ECCENTRICITY":0.0012896,"INCLINATION":97.5178,"RA_OF_ASC_NODE":132.5224,"ARG_OF_PERICENTER":89.3666,"MEAN_ANOMALY":270.9051,"EPHEMERIS_TYPE":0,"CLASSIFICATION_TYPE":"U","NORAD_CAT_ID":57217,"ELEMENT_SET_NO":999,"REV_AT_EPOCH":14921,"BSTAR":0.00057711473,"MEAN_MOTION_DOT":0.00015496,"MEAN_MOTION_DDOT":0},{"OBJECT_NAME":"STARLINK-35443","OBJECT_ID":"2025-253W","EPOCH":"2026-03-09T10:07:01.952832","MEAN_MOTION":15.27592799,"ECCENTRICITY":0.00017628,"INCLINATION":42.9973,"RA_OF_ASC_NODE":214.001,"ARG_OF_PERICENTER":280.0767,"MEAN_ANOMALY":79.9886,"EPHEMERIS_TYPE":0,"CLASSIFICATION_TYPE":"U","NORAD_CAT_ID":66339,"ELEMENT_SET_NO":999,"REV_AT_EPOCH":2020,"BSTAR":0.0014414418,"MEAN_MOTION_DOT":0.00039633,"MEAN_MOTION_DDOT":0}]
